{
  "type": "FeatureCollection",
  "features": [
    {
      "type": "Feature",
      "properties": {
        "norad_id": 33886,
        "name": "IRIDIUM 33 DEB",
        "group": "iridium-33-debris",
        "lat": 57.67357089005455,
        "lon": -114.96370576061092,
        "alt_km": 773.8015886113171,
        "timestamp": "2025-12-04T07:39:36.517006+00:00",
        "meta_object_name": "IRIDIUM 33 DEB",
        "meta_object_id": "1997-051BF",
        "meta_epoch": "2025-12-03T18:15:52.922016",
        "meta_mean_motion": 14.36033688,
        "meta_eccentricity": 0.00120654,
        "meta_inclination": 86.3832,
        "meta_ra_of_asc_node": 71.0074,
        "meta_arg_of_pericenter": 276.1979,
        "meta_mean_anomaly": 202.3327,
        "meta_ephemeris_type": 0,
        "meta_classification_type": "U",
        "meta_norad_cat_id": 33886,
        "meta_element_set_no": 999,
        "meta_rev_at_epoch": 87923,
        "meta_bstar": 0.00032171067,
        "meta_mean_motion_dot": 9.55e-06,
        "meta_mean_motion_ddot": 0,
        "tle_line1": "1 33886U 97051BF  25337.76102919  .00000955  00000+0  32171-3 0  9990",
        "tle_line2": "2 33886  86.3832  71.0074 0012065 276.1979 202.3327 14.36033688879234"
      },
      "geometry": {
        "type": "Point",
        "coordinates": [
          -114.96370576061092,
          57.67357089005455
        ]
      }
    },
    {
      "type": "Feature",
      "properties": {
        "norad_id": 33887,
        "name": "IRIDIUM 33 DEB",
        "group": "iridium-33-debris",
        "lat": 22.8174201344088,
        "lon": 8.578975945104622,
        "alt_km": 768.635026227741,
        "timestamp": "2025-12-04T07:39:36.517016+00:00",
        "meta_object_name": "IRIDIUM 33 DEB",
        "meta_object_id": "1997-051BG",
        "meta_epoch": "2025-12-03T13:45:17.631072",
        "meta_mean_motion": 14.37207782,
        "meta_eccentricity": 0.00040353,
        "meta_inclination": 86.3051,
        "meta_ra_of_asc_node": 7.3424,
        "meta_arg_of_pericenter": 270.6058,
        "meta_mean_anomaly": 214.7345,
        "meta_ephemeris_type": 0,
        "meta_classification_type": "U",
        "meta_norad_cat_id": 33887,
        "meta_element_set_no": 999,
        "meta_rev_at_epoch": 88033,
        "meta_bstar": 0.00021498775,
        "meta_mean_motion_dot": 6.59e-06,
        "meta_mean_motion_ddot": 0,
        "tle_line1": "1 33887U 97051BG  25337.57312073  .00000659  00000+0  21499-3 0  9996",
        "tle_line2": "2 33887  86.3051   7.3424 0004035 270.6058 214.7345 14.37207782880333"
      },
      "geometry": {
        "type": "Point",
        "coordinates": [
          8.578975945104622,
          22.8174201344088
        ]
      }
    },
    {
      "type": "Feature",
      "properties": {
        "norad_id": 33953,
        "name": "IRIDIUM 33 DEB",
        "group": "iridium-33-debris",
        "lat": 51.874328518851605,
        "lon": 62.05344481768429,
        "alt_km": 700.9206372794497,
        "timestamp": "2025-12-04T07:39:36.517026+00:00",
        "meta_object_name": "IRIDIUM 33 DEB",
        "meta_object_id": "1997-051BN",
        "meta_epoch": "2025-12-03T05:09:00.715968",
        "meta_mean_motion": 14.55157442,
        "meta_eccentricity": 0.0018449,
        "meta_inclination": 86.3853,
        "meta_ra_of_asc_node": 57.9126,
        "meta_arg_of_pericenter": 131.9522,
        "meta_mean_anomaly": 257.615,
        "meta_ephemeris_type": 0,
        "meta_classification_type": "U",
        "meta_norad_cat_id": 33953,
        "meta_element_set_no": 999,
        "meta_rev_at_epoch": 88165,
        "meta_bstar": 0.0017324,
        "meta_mean_motion_dot": 7.523e-05,
        "meta_mean_motion_ddot": 0,
        "tle_line1": "1 33953U 97051BN  25337.21459162  .00007523  00000+0  17324-2 0  9990",
        "tle_line2": "2 33953  86.3853  57.9126 0018449 131.9522 257.6150 14.55157442881659"
      },
      "geometry": {
        "type": "Point",
        "coordinates": [
          62.05344481768429,
          51.874328518851605
        ]
      }
    },
    {
      "type": "Feature",
      "properties": {
        "norad_id": 33960,
        "name": "IRIDIUM 33 DEB",
        "group": "iridium-33-debris",
        "lat": 40.72794808897965,
        "lon": -63.283674346326904,
        "alt_km": 607.9501177902894,
        "timestamp": "2025-12-04T07:39:36.517036+00:00",
        "meta_object_name": "IRIDIUM 33 DEB",
        "meta_object_id": "1997-051BV",
        "meta_epoch": "2025-12-03T22:02:56.046336",
        "meta_mean_motion": 14.84433668,
        "meta_eccentricity": 0.00070383,
        "meta_inclination": 86.253,
        "meta_ra_of_asc_node": 293.6703,
        "meta_arg_of_pericenter": 74.2098,
        "meta_mean_anomaly": 348.0492,
        "meta_ephemeris_type": 0,
        "meta_classification_type": "U",
        "meta_norad_cat_id": 33960,
        "meta_element_set_no": 999,
        "meta_rev_at_epoch": 88736,
        "meta_bstar": 0.0061170457,
        "meta_mean_motion_dot": 0.00051818,
        "meta_mean_motion_ddot": 0,
        "tle_line1": "1 33960U 97051BV  25337.91870424  .00051818  00000+0  61170-2 0  9997",
        "tle_line2": "2 33960  86.2530 293.6703 0007038  74.2098 348.0492 14.84433668887364"
      },
      "geometry": {
        "type": "Point",
        "coordinates": [
          -63.283674346326904,
          40.72794808897965
        ]
      }
    },
    {
      "type": "Feature",
      "properties": {
        "norad_id": 33966,
        "name": "IRIDIUM 33 DEB",
        "group": "iridium-33-debris",
        "lat": -9.421263016620536,
        "lon": 49.04078074400764,
        "alt_km": 734.4292002336642,
        "timestamp": "2025-12-04T07:39:36.517056+00:00",
        "meta_object_name": "IRIDIUM 33 DEB",
        "meta_object_id": "1997-051CB",
        "meta_epoch": "2025-12-03T17:20:32.441280",
        "meta_mean_motion": 14.49530471,
        "meta_eccentricity": 0.00064145,
        "meta_inclination": 86.3932,
        "meta_ra_of_asc_node": 49.8963,
        "meta_arg_of_pericenter": 220.7133,
        "meta_mean_anomaly": 258.7908,
        "meta_ephemeris_type": 0,
        "meta_classification_type": "U",
        "meta_norad_cat_id": 33966,
        "meta_element_set_no": 999,
        "meta_rev_at_epoch": 88311,
        "meta_bstar": 0.00091882532,
        "meta_mean_motion_dot": 3.542e-05,
        "meta_mean_motion_ddot": 0,
        "tle_line1": "1 33966U 97051CB  25337.72259770  .00003542  00000+0  91883-3 0  9993",
        "tle_line2": "2 33966  86.3932  49.8963 0006414 220.7133 258.7908 14.49530471883110"
      },
      "geometry": {
        "type": "Point",
        "coordinates": [
          49.04078074400764,
          -9.421263016620536
        ]
      }
    },
    {
      "type": "Feature",
      "properties": {
        "norad_id": 34071,
        "name": "IRIDIUM 33 DEB",
        "group": "iridium-33-debris",
        "lat": 60.598872611141445,
        "lon": 27.998829103037597,
        "alt_km": 719.3975037280034,
        "timestamp": "2025-12-04T07:39:36.517070+00:00",
        "meta_object_name": "IRIDIUM 33 DEB",
        "meta_object_id": "1997-051CE",
        "meta_epoch": "2025-12-03T14:48:40.660128",
        "meta_mean_motion": 14.49397126,
        "meta_eccentricity": 0.00094837,
        "meta_inclination": 86.3467,
        "meta_ra_of_asc_node": 21.7934,
        "meta_arg_of_pericenter": 132.2997,
        "meta_mean_anomaly": 227.9013,
        "meta_ephemeris_type": 0,
        "meta_classification_type": "U",
        "meta_norad_cat_id": 34071,
        "meta_element_set_no": 999,
        "meta_rev_at_epoch": 88202,
        "meta_bstar": 0.0009210058,
        "meta_mean_motion_dot": 3.542e-05,
        "meta_mean_motion_ddot": 0,
        "tle_line1": "1 34071U 97051CE  25337.61713727  .00003542  00000+0  92101-3 0  9990",
        "tle_line2": "2 34071  86.3467  21.7934 0009483 132.2997 227.9013 14.49397126882024"
      },
      "geometry": {
        "type": "Point",
        "coordinates": [
          27.998829103037597,
          60.598872611141445
        ]
      }
    },
    {
      "type": "Feature",
      "properties": {
        "norad_id": 34077,
        "name": "IRIDIUM 33 DEB",
        "group": "iridium-33-debris",
        "lat": 19.575452018449813,
        "lon": -126.0713906509879,
        "alt_km": 679.1691445374945,
        "timestamp": "2025-12-04T07:39:36.517083+00:00",
        "meta_object_name": "IRIDIUM 33 DEB",
        "meta_object_id": "1997-051CL",
        "meta_epoch": "2025-12-03T18:22:49.192896",
        "meta_mean_motion": 14.64588497,
        "meta_eccentricity": 0.00109402,
        "meta_inclination": 86.3874,
        "meta_ra_of_asc_node": 55.4594,
        "meta_arg_of_pericenter": 67.7769,
        "meta_mean_anomaly": 56.8334,
        "meta_ephemeris_type": 0,
        "meta_classification_type": "U",
        "meta_norad_cat_id": 34077,
        "meta_element_set_no": 999,
        "meta_rev_at_epoch": 88201,
        "meta_bstar": 0.0026047807,
        "meta_mean_motion_dot": 0.00013874,
        "meta_mean_motion_ddot": 0,
        "tle_line1": "1 34077U 97051CL  25337.76584714  .00013874  00000+0  26048-2 0  9999",
        "tle_line2": "2 34077  86.3874  55.4594 0010940  67.7769  56.8334 14.64588497882011"
      },
      "geometry": {
        "type": "Point",
        "coordinates": [
          -126.0713906509879,
          19.575452018449813
        ]
      }
    }
  ]
}